IRIDIUM 155             
1 43573U 18061E   21064.73248331  .00000070  00000-0  17777-4 0  9992
2 43573  86.3997 143.0930 0002313 109.8270 250.3175 14.34216877136806
IRIDIUM 154             
1 43574U 18061F   21064.71344999  .00000063  00000-0  15539-4 0  9994
2 43574  86.4000 143.1427 0002056  90.8498 269.2933 14.34215891136851
IRIDIUM 163             
1 43575U 18061G   21065.46188360  .00000071  00000-0  18365-4 0  9995
2 43575  86.3997 142.8043 0002679  88.9208 271.2295 14.34216529136936
IRIDIUM 156             
1 43576U 18061H   21064.73881402  .00000079  00000-0  21247-4 0  9993
2 43576  86.3999 143.1109 0002553  99.6051 260.5433 14.34215257136822
IRIDIUM 164             
1 43577U 18061J   21064.71979412  .00000043  00000-0  82034-5 0  9994
2 43577  86.3999 143.1300 0002187  90.3291 269.8155 14.34215183136868
IRIDIUM 159             
1 43578U 18061K   21065.45553665  .00000070  00000-0  17917-4 0  9992
2 43578  86.3996 142.8001 0002144  92.3429 267.8012 14.34219283136931
IRIDIUM 180             
1 43922U 19002A   21064.75734697  .00000069  00000-0  17404-4 0  9998
2 43922  86.3921  79.9181 0002357  64.2225 295.9214 14.34219332112440
IRIDIUM 176             
1 43923U 19002B   21064.75970046  .00000133  00000-0  17209-4 0  9994
2 43923  86.6056  79.9488 0002259  86.5904 273.5571 14.72248863115371
IRIDIUM 168             
1 43924U 19002C   21064.75100072  .00000016  00000-0 -13991-5 0  9995
2 43924  86.3924  79.9435 0002095  83.9405 276.2029 14.34215013112420
IRIDIUM 173             
1 43925U 19002D   21064.73832131  .00000066  00000-0  16484-4 0  9995
2 43925  86.3921  79.9162 0002184  85.2933 274.8512 14.34215708112405
IRIDIUM 169             
1 43926U 19002E   21064.84475178  .00000071  00000-0  16745-4 0  9998
2 43926  86.4198 111.4917 0004415 185.8897 174.2250 14.38606977112844
IRIDIUM 172             
1 43927U 19002F   21064.73198313  .00000064  00000-0  15621-4 0  9994
2 43927  86.3920  79.9208 0002169  82.9542 277.1900 14.34218470112417
IRIDIUM 175             
1 43928U 19002G   21064.75352405  .00000101  00000-0  12056-4 0  9992
2 43928  86.6041  79.7916 0003054  88.0692 272.0875 14.72249340115360
IRIDIUM 171             
1 43929U 19002H   21064.78271332  .00000064  00000-0  15768-4 0  9996
2 43929  86.3929  79.9916 0002063  84.6240 275.5191 14.34216061112419
IRIDIUM 170             
1 43930U 19002J   21064.76589394  .00000097  00000-0  11507-4 0  9999
2 43930  86.6056  79.9528 0002564  86.2514 273.8996 14.72256438115389
IRIDIUM 167             
1 43931U 19002K   21064.77637404  .00000063  00000-0  15414-4 0  9991
2 43931  86.3921  79.9076 0002181  69.0712 291.0717 14.34216951112418
